STARLINK-5341           
1 55287U 23010U   23034.58334491 -.00842827  00000+0 -57718-2 0  9994
2 55287  69.9991  26.6643 0003492 265.1487 322.2109 15.76744530  1305
STARLINK-5311           
1 55288U 23010V   23034.58334491 -.00859890  00000+0 -58734-2 0  9992
2 55288  69.9990  26.6585 0003489 261.7405 330.3142 15.76848278  1309
STARLINK-5320           
1 55289U 23010W   23034.58334491 -.00846906  00000+0 -57899-2 0  9998
2 55289  69.9991  26.6615 0003491 262.2415 327.4644 15.76793554  1305
STARLINK-5266           
1 55290U 23010X   23034.58334491 -.00849810  00000+0 -58065-2 0  9993
2 55290  69.9989  26.6601 0003450 263.5719 327.0695 15.76814372  1309
STARLINK-5327           
1 55291U 23010Y   23034.58334491 -.00843413  00000+0 -57618-2 0  9990
2 55291  69.9991  26.6607 0003494 263.5701 326.5991 15.76800714  1306
STARLINK-5325           
1 55292U 23010Z   23034.58334491  .00162135  00000+0  98920-3 0  9996
2 55292  69.9978  26.6529 0003219 261.9623 330.5734 15.76772980  1308
STARLINK-5287           
1 55293U 23010AA  23034.58334491 -.00844250  00000+0 -57610-2 0  9994
2 55293  69.9990  26.6591 0003501 263.5726 328.0106 15.76828291  1300
STARLINK-5286           
1 55294U 23010AB  23034.58334491 -.00844506  00000+0 -57853-2 0  9998
2 55294  69.9989  26.6641 0003541 263.1275 323.7082 15.76740610  1307
STARLINK-5293           
1 55295U 23010AC  23034.58334491 -.00842201  00000+0 -58004-2 0  9998
2 55295  69.9991  26.6723 0003495 263.6613 316.5169 15.76614808  1306
STARLINK-5285           
1 55296U 23010AD  23034.58334491 -.00858809  00000+0 -58536-2 0  9990
2 55296  69.9991  26.6557 0003517 261.8629 332.5417 15.76892650  1301
STARLINK-5284           
1 55297U 23010AE  23034.58334491 -.00845113  00000+0 -57603-2 0  9999
2 55297  69.9990  26.6575 0003495 262.0397 330.9491 15.76856334  1304
STARLINK-5272           
1 55298U 23010AF  23034.58334491 -.00856962  00000+0 -58373-2 0  9999
2 55298  69.9989  26.6543 0003578 262.8366 332.0272 15.76901257  1309
STARLINK-5270           
1 55299U 23010AG  23034.58334491 -.00847320  00000+0 -57744-2 0  9999
2 55299  69.9989  26.6565 0003469 266.9190 326.5507 15.76866199  1307
STARLINK-5308           
1 55300U 23010AH  23034.58334491 -.00852864  00000+0 -58051-2 0  9993
2 55300  69.9989  26.6539 0003546 263.2695 332.0636 15.76907351  1308
STARLINK-5321           
1 55302U 23010AK  23034.58334491 -.00851866  00000+0 -57961-2 0  9995
2 55302  69.9991  26.6538 0003455 265.4168 330.4019 15.76914380  1307
STARLINK-5322           
1 55303U 23010AL  23034.58334491 -.00844749  00000+0 -57756-2 0  9990
2 55303  69.9990  26.6617 0003448 262.0316 327.1552 15.76786619  1302
STARLINK-5318           
1 55304U 23010AM  23034.58334491 -.00839161  00000+0 -57010-2 0  9996
2 55304  69.9991  26.6529 0003480 261.2057 335.0837 15.76914459  1304
STARLINK-5316           
1 55305U 23010AN  23034.58334491 -.00843874  00000+0 -58050-2 0  9998
2 55305  69.9991  26.6707 0003485 264.6653 316.8925 15.76646236  1307
STARLINK-5295           
1 55306U 23010AP  23034.58334491 -.00860402  00000+0 -58513-2 0  9999
2 55306  69.9991  26.6514 0003508 264.3062 332.9184 15.76947454  1303
STARLINK-5288           
1 55307U 23010AQ  23034.58334491 -.00855505  00000+0 -58176-2 0  9993
2 55307  69.9990  26.6523 0003562 264.4653 332.2897 15.76935311  1303
STARLINK-5292           
1 55308U 23010AR  23034.58334491 -.00691729  00000+0 -46202-2 0  9997
2 55308  69.9985  26.6473 0003449 261.7388 337.3682 15.76909432  1304
STARLINK-5315           
1 55309U 23010AS  23034.58334491 -.00871827  00000+0 -59319-2 0  9990
2 55309  69.9988  26.6510 0003570 261.7374 335.9381 15.76966066  1306
STARLINK-5309           
1 55310U 23010AT  23034.58334491 -.00847926  00000+0 -57525-2 0  9992
2 55310  69.9989  26.6500 0003546 261.3664 337.2318 15.76968260  1302
STARLINK-5312           
1 55311U 23010AU  23034.58334491 -.00852102  00000+0 -57858-2 0  9994
2 55311  69.9991  26.6512 0003514 261.4234 336.7302 15.76960460  1309
STARLINK-5296           
1 55312U 23010AV  23034.58334491 -.00656650  14165-3 -17737-2 0  9998
2 55312  69.9943  25.8999 0005180 265.6225 235.2113 15.94026699  1304
STARLINK-5313           
1 55313U 23010AW  23034.58334491 -.00851748  00000+0 -57757-2 0  9999
2 55313  69.9991  26.6487 0003549 264.4410 335.0945 15.76988967  1306
STARLINK-5305           
1 55314U 23010AX  23034.58334491 -.00836046  00000+0 -56555-2 0  9999
2 55314  69.9991  26.6471 0003485 261.6807 339.2906 15.77002584  1304
STARLINK-4623           
1 55315U 23010AY  23034.58334491 -.00854782  00000+0 -58390-2 0  9996
2 55315  69.9990  26.6593 0003483 262.8362 328.1924 15.76832862  1302
STARLINK-5257           
1 55316U 23010AZ  23034.58334491 -.00951286  00000+0 -76817-2 0  9998
2 55316  69.9960  26.7956 0003233 272.8650 195.7983 15.73278737  1303
STARLINK-5265           
1 55317U 23010BA  23034.58334491 -.00852270  00000+0 -57753-2 0  9990
2 55317  69.9990  26.6484 0003529 260.5666 339.9225 15.77005921  1309
STARLINK-5180           
1 55318U 23010BB  23034.58334491 -.00853496  00000+0 -57797-2 0  9990
2 55318  69.9991  26.6468 0003505 261.9586 339.4679 15.77024636  1305
STARLINK-5196           
1 55319U 23010BC  23034.58334491 -.00851600  00000+0 -57636-2 0  9998
2 55319  69.9989  26.6465 0003490 263.8985 337.9952 15.77032478  1307
HAWK-6B                 
1 55324U 23011A   23034.56062026  .00006220  00000+0  43546-3 0  9999
2 55324  40.5049 224.7635 0004027 280.5264  79.5095 15.05516136  1449
ELECTRON KICK STAGE R/B 
1 55325U 23011B   23034.56051058  .00006688  00000+0  46807-3 0  9994
2 55325  40.5068 224.7621 0003479 253.7397 106.3045 15.05460959  1440
HAWK-6C                 
1 55326U 23011C   23034.55891521  .00007640  00000+0  52839-3 0  9992
2 55326  40.5001 224.7500 0003467 244.9468 115.0974 15.05784889  1441
HAWK-6A                 
1 55327U 23011D   23034.55866811  .00002459  00000+0  17819-3 0  9999
2 55327  40.5074 224.7460 0003935 249.0897 110.9488 15.05709782  1442
ELECTRON R/B            
1 55328U 23011E   23034.59575705  .00079172  00000+0  10695-2 0  9993
2 55328  40.4957 221.4453 0166577 196.4400 163.1101 15.42105384  1491
STARLINK-5492           
1 55331U 23013A   23034.58334491 -.00874930  22917-3 -29758-2 0  9995
2 55331  42.9999 354.5798 0019789 222.1591 161.2289 15.88548305  1308
STARLINK-5491           
1 55332U 23013B   23034.58334491  .00195400  22840-4  46655-3 0  9994
2 55332  42.9976 354.4999 0039873 215.2817 199.2465 15.94406228  1307
STARLINK-5493           
1 55333U 23013C   23034.58334491 -.00875313  22939-3 -29792-2 0  9995
2 55333  42.9999 354.5785 0018859 223.4997 160.4332 15.88565945  1306
STARLINK-5652           
1 55334U 23013D   23034.58334491 -.00875069  22926-3 -29717-2 0  9997
2 55334  42.9999 354.5794 0020391 222.4762 161.1678 15.88557538  1300
STARLINK-5660           
1 55335U 23013E   23034.58334491 -.00875345  22945-3 -29766-2 0  9990
2 55335  42.9999 354.5772 0018864 223.5376 160.9249 15.88583804  1308
STARLINK-5655           
1 55336U 23013F   23034.58334491 -.00789010  20893-3 -16356-2 0  9995
2 55336  42.9996 353.9965 0007939 259.6502 356.8808 15.98136918  1303
STARLINK-5667           
1 55337U 23013G   23034.58334491  .00275239  37858-4  59733-3 0  9994
2 55337  42.9980 354.4727 0042940 214.6289 210.5436 15.95800316  1303
STARLINK-5658           
1 55338U 23013H   23034.58334491 -.00875494  22954-3 -29766-2 0  9998
2 55338  42.9999 354.5768 0018665 223.4234 161.2659 15.88593760  1308
STARLINK-5671           
1 55339U 23013J   23034.58334491 -.00875495  22962-3 -29711-2 0  9999
2 55339  42.9999 354.5739 0018678 223.5003 162.2228 15.88629977  1309
STARLINK-5675           
1 55340U 23013K   23034.58334491 -.00875792  22978-3 -29698-2 0  9992
2 55340  42.9999 354.5736 0018873 223.2679 162.7220 15.88638958  1307
STARLINK-5670           
1 55341U 23013L   23034.58334491 -.00875648  22967-3 -29716-2 0  9992
2 55341  43.0000 354.5746 0018931 223.1136 162.3236 15.88621773  1306
STARLINK-5657           
1 55342U 23013M   23034.58334491 -.00875872  22984-3 -29698-2 0  9990
2 55342  42.9999 354.5728 0018621 223.5201 162.6902 15.88649079  1307
STARLINK-5661           
1 55343U 23013N   23034.58334491 -.00875839  22987-3 -29643-2 0  9997
2 55343  42.9999 354.5714 0019125 222.9145 163.7689 15.88668307  1302
STARLINK-5662           
1 55344U 23013P   23034.58334491 -.00875747  22980-3 -29693-2 0  9994
2 55344  42.9999 354.5722 0018360 223.9863 162.4817 15.88658048  1300
STARLINK-5653           
1 55345U 23013Q   23034.58334491 -.00825349  21738-3 -21258-2 0  9997
2 55345  42.9997 354.2401 0014380 229.7563 287.9945 15.94049367  1309
STARLINK-5631           
1 55346U 23013R   23034.58334491 -.00876040  22997-3 -29648-2 0  9991
2 55346  42.9999 354.5706 0019032 222.9550 164.1655 15.88672648  1304
STARLINK-5663           
1 55347U 23013S   23034.58334491 -.00875917  23000-3 -29548-2 0  9999
2 55347  43.0000 354.5681 0019714 222.1201 165.8561 15.88713439  1302
STARLINK-5609           
1 55348U 23013T   23034.58334491 -.00875959  22996-3 -29640-2 0  9992
2 55348  42.9999 354.5701 0018776 223.4043 163.8618 15.88684655  1304
STARLINK-5666           
1 55349U 23013U   23034.58334491 -.00875986  22999-3 -29582-2 0  9991
2 55349  42.9999 354.5693 0019624 222.4380 165.0235 15.88695376  1302
STARLINK-5668           
1 55350U 23013V   23034.58334491 -.00875898  22997-3 -29631-2 0  9998
2 55350  42.9999 354.5689 0018342 223.7412 164.0113 15.88703446  1307
STARLINK-5659           
1 55351U 23013W   23034.58334491 -.00874605  22945-3 -29469-2 0  9996
2 55351  42.9998 354.5654 0019385 222.9097 166.1325 15.88747789  1303
STARLINK-5547           
1 55352U 23013X   23034.58334491 -.00857326  22120-3 -28971-2 0  9990
2 55352  42.9998 354.5671 0018405 224.5670 163.9569 15.88719764  1307
